STARLINK-1355
1 25563C 20025AJ  21325.11824330  .00001819  00000-0  12188-3 0  3252
2 25563  53.0541 292.7074 0001880  64.8228 347.9946 15.06389263    17
